NORAD_CAT_ID,OBJECT_NAME,OBJECT_TYPE,EPOCH,MEAN_MOTION,ECCENTRICITY,INCLINATION,RA_OF_ASC_NODE,ARG_OF_PERICENTER,MEAN_ANOMALY,BSTAR,MEAN_MOTION_DOT,MEAN_MOTION_DDOT,TLE_LINE0,TLE_LINE1,TLE_LINE2,SEMIMAJOR_AXIS,PERIOD,APOGEE,PERIGEE,DECAYED
55309.0,STARLINK-5315,PAYLOAD,2024-04-10 08:17:01,14.98355822,0.0002607,70.002,325.3675,274.1888,85.8973,-0.00071442,-8.612e-05,0.0,0 STARLINK-5315,1 55309U 23010AS  24101.34515465 -.00008612  00000-0 -71442-3 0  9999,2 55309  70.0020 325.3675 0002607 274.1888  85.8973 14.98355822 68840,6950.113,96.105,573.79,570.166,0.0
55309.0,STARLINK-5315,PAYLOAD,2024-04-10 14:41:33,14.98332717,0.0002775,70.001,324.6942,270.4359,89.6482,-0.00013973,-1.76e-05,0.0,0 STARLINK-5315,1 55309U 23010AS  24101.61219688 -.00001760  00000-0 -13973-3 0  9999,2 55309  70.0010 324.6942 0002775 270.4359  89.6482 14.98332717 69202,6950.184,96.107,573.978,570.121,0.0
55309.0,STARLINK-5315,PAYLOAD,2024-04-10 21:06:05,14.98331594,0.0002693,70.0004,324.0214,260.4448,99.6406,-9.0847e-05,-1.177e-05,0.0,0 STARLINK-5315,1 55309U 23010AS  24101.87923553 -.00001177  00000-0 -90847-4 0  9998,2 55309  70.0004 324.0214 0002693 260.4448  99.6406 14.98331594 68925,6950.188,96.107,573.925,570.181,0.0
55309.0,STARLINK-5315,PAYLOAD,2024-04-11 08:19:02,14.98325404,0.000312,69.9994,322.8422,249.6123,110.4701,5.5387e-05,5.68e-06,0.0,0 STARLINK-5315,1 55309U 23010AS  24102.34655475  .00000568  00000-0  55387-4 0  9997,2 55309  69.9994 322.8422 0003120 249.6123 110.4701 14.98325404 69319,6950.207,96.107,574.241,569.904,0.0
55309.0,STARLINK-5315,PAYLOAD,2024-04-11 21:08:06,14.98328937,0.0003063,69.9989,321.495,269.6569,90.4239,0.00010929,1.211e-05,0.0,0 STARLINK-5315,1 55309U 23010AS  24102.88063246  .00001211  00000-0  10929-3 0  9993,2 55309  69.9989 321.4950 0003063 269.6569  90.4239 14.98328937 69076,6950.196,96.107,574.19,569.932,0.0
55309.0,STARLINK-5315,PAYLOAD,2024-04-12 14:45:35,14.98327137,0.0003019,69.999,319.6435,269.8855,90.1958,4.5916e-05,4.55e-06,0.0,0 STARLINK-5315,1 55309U 23010AS  24103.61499550  .00000455  00000-0  45916-4 0  9990,2 55309  69.9990 319.6435 0003019 269.8855  90.1958 14.98327137 69500,6950.202,96.107,574.165,569.968,0.0
55309.0,STARLINK-5315,PAYLOAD,2024-04-12 22:46:15,14.98330212,0.0003007,69.999,318.8015,269.2612,90.8202,4.4985e-05,4.44e-06,0.0,0 STARLINK-5315,1 55309U 23010AS  24103.94879359  .00000444  00000-0  44985-4 0  9998,2 55309  69.9990 318.8015 0003007 269.2612  90.8202 14.98330212 69559,6950.192,96.107,574.147,569.967,0.0
55309.0,STARLINK-5315,PAYLOAD,2024-04-13 00:22:23,14.98330986,0.000301,69.999,318.6333,269.495,90.5864,5.1491e-05,5.21e-06,0.0,0 STARLINK-5315,1 55309U 23010AS  24104.01555286  .00000521  00000-0  51491-4 0  9993,2 55309  69.9990 318.6333 0003010 269.4950  90.5864 14.98330986 69246,6950.19,96.107,574.147,569.963,0.0
55309.0,STARLINK-5315,PAYLOAD,2024-04-13 14:47:36,14.98331959,0.0002827,69.9998,317.1183,270.6185,89.465,-6.6034e-05,-8.81e-06,0.0,0 STARLINK-5315,1 55309U 23010AS  24104.61639571 -.00000881  00000-0 -66034-4 0  9999,2 55309  69.9998 317.1183 0002827 270.6185  89.4650 14.98331959 69656,6950.187,96.107,574.017,570.087,0.0
55309.0,STARLINK-5315,PAYLOAD,2024-04-13 21:12:08,14.98330536,0.0002763,69.9997,316.4469,261.5023,98.5823,-5.5076e-05,-7.5e-06,0.0,0 STARLINK-5315,1 55309U 23010AS  24104.88343553 -.00000750  00000-0 -55076-4 0  9999,2 55309  69.9997 316.4469 0002763 261.5023  98.5823 14.98330536 69690,6950.191,96.107,573.977,570.136,0.0
55309.0,STARLINK-5315,PAYLOAD,2024-04-14 00:24:24,14.98330534,0.0002759,69.9997,316.11,262.5863,97.4983,-5.225e-05,-7.16e-06,0.0,0 STARLINK-5315,1 55309U 23010AS  24105.01695544 -.00000716  00000-0 -52250-4 0  9998,2 55309  69.9997 316.1100 0002759 262.5863  97.4983 14.98330534 69397,6950.191,96.107,573.974,570.139,0.0
55309.0,STARLINK-5315,PAYLOAD,2024-04-14 21:14:09,14.98332764,0.0002827,69.9993,313.9211,265.594,94.4896,2.5937e-05,2.17e-06,0.0,0 STARLINK-5315,1 55309U 23010AS  24105.88483079  .00000217  00000-0  25937-4 0  9997,2 55309  69.9993 313.9211 0002827 265.5940  94.4896 14.98332764 69843,6950.184,96.107,574.014,570.085,0.0
55309.0,STARLINK-5315,PAYLOAD,2024-04-15 00:26:25,14.9833388,0.000282,69.9994,313.5846,264.872,95.2117,3.7137e-05,3.5e-06,0.0,0 STARLINK-5315,1 55309U 23010AS  24106.01834946  .00000350  00000-0  37137-4 0  9999,2 55309  69.9994 313.5846 0002820 264.8720  95.2117 14.98333880 69547,6950.181,96.107,574.006,570.086,0.0
55309.0,STARLINK-5315,PAYLOAD,2024-04-15 13:15:29,14.98330496,0.0002793,69.9994,312.2382,262.2797,97.8045,4.3183e-05,4.22e-06,0.0,0 STARLINK-5315,1 55309U 23010AS  24106.55243050  .00000422  00000-0  43183-4 0  9996,2 55309  69.9994 312.2382 0002793 262.2797  97.8045 14.98330496 69945,6950.191,96.107,573.998,570.115,0.0
55309.0,STARLINK-5315,PAYLOAD,2024-04-15 21:16:10,14.98330509,0.0002823,69.9994,311.3963,260.7604,99.3236,3.8417e-05,3.65e-06,0.0,0 STARLINK-5315,1 55309U 23010AS  24106.88623042  .00000365  00000-0  38417-4 0  9995,2 55309  69.9994 311.3963 0002823 260.7604  99.3236 14.98330509 69993,6950.191,96.107,574.018,570.094,0.0
55309.0,STARLINK-5315,PAYLOAD,2024-04-16 00:28:26,14.98330745,0.0002824,69.9994,311.0595,261.8823,98.2016,3.887e-05,3.71e-06,0.0,0 STARLINK-5315,1 55309U 23010AS  24107.01975021  .00000371  00000-0  38870-4 0  9998,2 55309  69.9994 311.0595 0002824 261.8823  98.2016 14.98330745 69690,6950.191,96.107,574.018,570.093,0.0
55309.0,STARLINK-5315,PAYLOAD,2024-04-16 14:53:38,14.98333376,0.0002883,69.9993,309.5432,270.9559,89.127,-2.7135e-06,-1.25e-06,0.0,0 STARLINK-5315,1 55309U 23010AS  24107.62058953 -.00000125  00000-0 -27135-5 0  9993,2 55309  69.9993 309.5432 0002883 270.9559  89.1270 14.98333376 70105,6950.182,96.107,574.051,570.044,0.0
55309.0,STARLINK-5315,PAYLOAD,2024-04-16 21:18:11,14.98334714,0.0002873,69.999,308.8697,270.9555,89.1275,1.4647e-05,8.2e-07,0.0,0 STARLINK-5315,1 55309U 23010AS  24107.88762763  .00000082  00000-0  14647-4 0  9995,2 55309  69.9990 308.8697 0002873 270.9555  89.1275 14.98334714 70148,6950.178,96.107,574.04,570.047,0.0
55309.0,STARLINK-5315,PAYLOAD,2024-04-17 14:55:40,14.98324739,0.0002551,70.0006,307.0199,248.0953,111.9935,-8.241e-05,-1.076e-05,0.0,0 STARLINK-5315,1 55309U 23010AS  24108.62199597 -.00001076  00000-0 -82410-4 0  9996,2 55309  70.0006 307.0199 0002551 248.0953 111.9935 14.98324739 70253,6950.209,96.107,573.847,570.301,0.0
55309.0,STARLINK-5315,PAYLOAD,2024-04-17 19:44:05,14.98320943,0.0002986,69.9992,306.5146,258.5941,101.4883,-0.00011057,-1.412e-05,0.0,0 STARLINK-5315,1 55309U 23010AS  24108.82228031 -.00001412  00000-0 -11057-3 0  9996,2 55309  69.9992 306.5146 0002986 258.5941 101.4883 14.98320943 69960,6950.221,96.108,574.161,570.011,0.0
55309.0,STARLINK-5315,PAYLOAD,2024-04-17 21:20:13,14.98321405,0.0002932,69.9994,306.3465,254.5489,105.5346,-9.9944e-05,-1.285e-05,0.0,0 STARLINK-5315,1 55309U 23010AS  24108.88903979 -.00001285  00000-0 -99944-4 0  9993,2 55309  69.9994 306.3465 0002932 254.5489 105.5346 14.98321405 70299,6950.219,96.108,574.122,570.047,0.0
55309.0,STARLINK-5315,PAYLOAD,2024-04-18 13:21:32,14.9833244,0.0002959,69.998,304.6602,272.1656,87.9164,4.8882e-05,4.9e-06,0.0,0 STARLINK-5315,1 55309U 23010AS  24109.55663068  .00000490  00000-0  48882-4 0  9990,2 55309  69.9980 304.6602 0002959 272.1656  87.9164 14.98332440 70077,6950.185,96.107,574.107,569.994,0.0
55309.0,STARLINK-5315,PAYLOAD,2024-04-18 14:57:40,14.98332298,0.0003212,69.9981,304.4918,270.8936,89.1855,5.9947e-05,6.22e-06,0.0,0 STARLINK-5315,1 55309U 23010AS  24109.62338987  .00000622  00000-0  59947-4 0  9998,2 55309  69.9981 304.4918 0003212 270.8936  89.1855 14.98332298 70404,6950.186,96.107,574.283,569.818,0.0
55309.0,STARLINK-5315,PAYLOAD,2024-04-18 21:22:11,14.98345876,0.0003013,69.9986,303.8186,258.3123,101.7698,0.00020375,2.34e-05,0.0,0 STARLINK-5315,1 55309U 23010AS  24109.89041542  .00002340  00000-0  20375-3 0  9996,2 55309  69.9986 303.8186 0003013 258.3123 101.7698 14.98345876 70443,6950.144,96.106,574.103,569.915,0.0
55309.0,STARLINK-5315,PAYLOAD,2024-04-18 22:58:17,14.98375589,0.0002386,70.0011,303.6555,263.6411,96.4476,0.00054186,6.386e-05,0.0,0 STARLINK-5315,1 55309U 23010AS  24109.95714975  .00006386  00000-0  54186-3 0  9991,2 55309  70.0011 303.6555 0002386 263.6411  96.4476 14.98375589 70138,6950.052,96.104,573.575,570.259,0.0
55309.0,STARLINK-5315,PAYLOAD,2024-04-19 13:23:30,14.98353862,0.0003199,69.9983,302.1365,267.2616,92.8177,0.00035947,4.201e-05,0.0,0 STARLINK-5315,1 55309U 23010AS  24110.55799651  .00004201  00000-0  35947-3 0  9991,2 55309  69.9983 302.1365 0003199 267.2616  92.8177 14.98353862 70224,6950.119,96.105,574.207,569.761,0.0
55309.0,STARLINK-5315,PAYLOAD,2024-04-19 14:59:40,14.9833016,0.0003333,69.9983,301.9684,270.9762,89.1016,8.555e-05,9.28e-06,0.0,0 STARLINK-5315,1 55309U 23010AS  24110.62477648  .00000928  00000-0  85550-4 0  9996,2 55309  69.9983 301.9684 0003333 270.9762  89.1016 14.98330160 70551,6950.192,96.107,574.374,569.741,0.0
55309.0,STARLINK-5315,PAYLOAD,2024-04-19 19:48:04,14.98331547,0.0002997,69.9983,301.4634,259.3994,100.6827,8.5824e-05,9.31e-06,0.0,0 STARLINK-5315,1 55309U 23010AS  24110.82505435  .00000931  00000-0  85824-4 0  9992,2 55309  69.9983 301.4634 0002997 259.3994 100.6827 14.98331547 70261,6950.188,96.107,574.136,569.97,0.0
55309.0,STARLINK-5315,PAYLOAD,2024-04-19 21:24:12,14.98333451,0.0003003,69.9983,301.2955,258.7371,101.3451,9.9955e-05,1.1e-05,0.0,0 STARLINK-5315,1 55309U 23010AS  24110.89181232  .00001100  00000-0  99955-4 0  9993,2 55309  69.9983 301.2955 0003003 258.7371 101.3451 14.98333451 70599,6950.182,96.107,574.134,569.96,0.0
55309.0,STARLINK-5315,PAYLOAD,2024-04-20 13:25:35,14.9831566,0.0003181,69.9993,299.6112,273.7442,86.3353,-0.00027591,-3.382e-05,0.0,0 STARLINK-5315,1 55309U 23010AS  24111.55943630 -.00003382  00000-0 -27591-3 0  9997,2 55309  69.9993 299.6112 0003181 273.7442  86.3353 14.98315660 70379,6950.237,96.108,574.313,569.891,0.0
